{
  "type": "FeatureCollection",
  "features": [
    {
      "type": "Feature",
      "properties": {
        "norad_id": 30022,
        "name": "FENGYUN 1C DEB",
        "group": "fengyun-1c-debris",
        "lat": 51.350293484704366,
        "lon": 19.924418031533225,
        "alt_km": 854.9156088894306,
        "timestamp": "2025-12-06T11:28:11.335872+00:00",
        "meta_object_name": "FENGYUN 1C DEB",
        "meta_object_id": "1999-025MX",
        "meta_epoch": "2025-12-05T13:11:05.084160",
        "meta_mean_motion": 14.23128432,
        "meta_eccentricity": 0.00666417,
        "meta_inclination": 99.0727,
        "meta_ra_of_asc_node": 187.4423,
        "meta_arg_of_pericenter": 290.0186,
        "meta_mean_anomaly": 123.3941,
        "meta_ephemeris_type": 0,
        "meta_classification_type": "U",
        "meta_norad_cat_id": 30022,
        "meta_element_set_no": 999,
        "meta_rev_at_epoch": 98090,
        "meta_bstar": 0.0001403567,
        "meta_mean_motion_dot": 2.76e-06,
        "meta_mean_motion_ddot": 0,
        "tle_line1": "1 30022U 99025MX  25339.54936440  .00000276  00000+0  14036-3 0  9990",
        "tle_line2": "2 30022  99.0727 187.4423 0066641 290.0186 123.3941 14.23128432980900"
      },
      "geometry": {
        "type": "Point",
        "coordinates": [
          19.924418031533225,
          51.350293484704366
        ]
      }
    },
    {
      "type": "Feature",
      "properties": {
        "norad_id": 30023,
        "name": "FENGYUN 1C DEB",
        "group": "fengyun-1c-debris",
        "lat": -48.01438332189136,
        "lon": -175.7025548959748,
        "alt_km": 881.4671248649056,
        "timestamp": "2025-12-06T11:28:11.335883+00:00",
        "meta_object_name": "FENGYUN 1C DEB",
        "meta_object_id": "1999-025MY",
        "meta_epoch": "2025-12-05T12:08:36.410208",
        "meta_mean_motion": 14.11846763,
        "meta_eccentricity": 0.00471947,
        "meta_inclination": 99.2943,
        "meta_ra_of_asc_node": 172.8068,
        "meta_arg_of_pericenter": 83.4983,
        "meta_mean_anomaly": 330.8533,
        "meta_ephemeris_type": 0,
        "meta_classification_type": "U",
        "meta_norad_cat_id": 30023,
        "meta_element_set_no": 999,
        "meta_rev_at_epoch": 97094,
        "meta_bstar": 0.00065623266,
        "meta_mean_motion_dot": 1.163e-05,
        "meta_mean_motion_ddot": 0,
        "tle_line1": "1 30023U 99025MY  25339.50597697  .00001163  00000+0  65623-3 0  9998",
        "tle_line2": "2 30023  99.2943 172.8068 0047194  83.4983 330.8533 14.11846763970943"
      },
      "geometry": {
        "type": "Point",
        "coordinates": [
          -175.7025548959748,
          -48.01438332189136
        ]
      }
    },
    {
      "type": "Feature",
      "properties": {
        "norad_id": 30028,
        "name": "FENGYUN 1C DEB",
        "group": "fengyun-1c-debris",
        "lat": -30.318660546529255,
        "lon": -22.34355007203283,
        "alt_km": 693.5419065688957,
        "timestamp": "2025-12-06T11:28:11.335893+00:00",
        "meta_object_name": "FENGYUN 1C DEB",
        "meta_object_id": "1999-025ND",
        "meta_epoch": "2025-12-05T22:32:44.176416",
        "meta_mean_motion": 14.55443751,
        "meta_eccentricity": 0.01741685,
        "meta_inclination": 98.1445,
        "meta_ra_of_asc_node": 332.3271,
        "meta_arg_of_pericenter": 249.614,
        "meta_mean_anomaly": 137.9604,
        "meta_ephemeris_type": 0,
        "meta_classification_type": "U",
        "meta_norad_cat_id": 30028,
        "meta_element_set_no": 999,
        "meta_rev_at_epoch": 99623,
        "meta_bstar": 0.00077657411,
        "meta_mean_motion_dot": 4.089e-05,
        "meta_mean_motion_ddot": 0,
        "tle_line1": "1 30028U 99025ND  25339.93940019  .00004089  00000+0  77657-3 0  9990",
        "tle_line2": "2 30028  98.1445 332.3271 0174168 249.6140 137.9604 14.55443751996238"
      },
      "geometry": {
        "type": "Point",
        "coordinates": [
          -22.34355007203283,
          -30.318660546529255
        ]
      }
    },
    {
      "type": "Feature",
      "properties": {
        "norad_id": 30035,
        "name": "FENGYUN 1C DEB",
        "group": "fengyun-1c-debris",
        "lat": -14.500736569148055,
        "lon": 72.38866315497194,
        "alt_km": 806.6996846123138,
        "timestamp": "2025-12-06T11:28:11.335903+00:00",
        "meta_object_name": "FENGYUN 1C DEB",
        "meta_object_id": "1999-025NL",
        "meta_epoch": "2025-12-05T19:43:44.491872",
        "meta_mean_motion": 14.3696965,
        "meta_eccentricity": 0.01156651,
        "meta_inclination": 99.2702,
        "meta_ra_of_asc_node": 254.1036,
        "meta_arg_of_pericenter": 81.9266,
        "meta_mean_anomaly": 320.497,
        "meta_ephemeris_type": 0,
        "meta_classification_type": "U",
        "meta_norad_cat_id": 30035,
        "meta_element_set_no": 999,
        "meta_rev_at_epoch": 99024,
        "meta_bstar": 0.00013398407,
        "meta_mean_motion_dot": 3.76e-06,
        "meta_mean_motion_ddot": 0,
        "tle_line1": "1 30035U 99025NL  25339.82204273  .00000376  00000+0  13398-3 0  9998",
        "tle_line2": "2 30035  99.2702 254.1036 0115665  81.9266 320.4970 14.36969650990247"
      },
      "geometry": {
        "type": "Point",
        "coordinates": [
          72.38866315497194,
          -14.500736569148055
        ]
      }
    },
    {
      "type": "Feature",
      "properties": {
        "norad_id": 30036,
        "name": "FENGYUN 1C DEB",
        "group": "fengyun-1c-debris",
        "lat": 74.85182147956054,
        "lon": -24.68331125466836,
        "alt_km": 846.8220989187494,
        "timestamp": "2025-12-06T11:28:11.335913+00:00",
        "meta_object_name": "FENGYUN 1C DEB",
        "meta_object_id": "1999-025NM",
        "meta_epoch": "2025-12-05T23:46:34.864320",
        "meta_mean_motion": 14.46142007,
        "meta_eccentricity": 0.01896962,
        "meta_inclination": 98.2529,
        "meta_ra_of_asc_node": 7.2619,
        "meta_arg_of_pericenter": 228.286,
        "meta_mean_anomaly": 195.0301,
        "meta_ephemeris_type": 0,
        "meta_classification_type": "U",
        "meta_norad_cat_id": 30036,
        "meta_element_set_no": 999,
        "meta_rev_at_epoch": 99079,
        "meta_bstar": 0.00077701865,
        "meta_mean_motion_dot": 3.42e-05,
        "meta_mean_motion_ddot": 0,
        "tle_line1": "1 30036U 99025NM  25339.99068130  .00003420  00000+0  77702-3 0  9999",
        "tle_line2": "2 30036  98.2529   7.2619 0189696 228.2860 195.0301 14.46142007990793"
      },
      "geometry": {
        "type": "Point",
        "coordinates": [
          -24.68331125466836,
          74.85182147956054
        ]
      }
    },
    {
      "type": "Feature",
      "properties": {
        "norad_id": 30037,
        "name": "FENGYUN 1C DEB",
        "group": "fengyun-1c-debris",
        "lat": 22.042481549701133,
        "lon": -47.040314241531625,
        "alt_km": 698.1454559076319,
        "timestamp": "2025-12-06T11:28:11.335923+00:00",
        "meta_object_name": "FENGYUN 1C DEB",
        "meta_object_id": "1999-025NN",
        "meta_epoch": "2025-12-05T22:06:31.845024",
        "meta_mean_motion": 14.34103236,
        "meta_eccentricity": 0.01746289,
        "meta_inclination": 98.3827,
        "meta_ra_of_asc_node": 315.8424,
        "meta_arg_of_pericenter": 75.2734,
        "meta_mean_anomaly": 316.1782,
        "meta_ephemeris_type": 0,
        "meta_classification_type": "U",
        "meta_norad_cat_id": 30037,
        "meta_element_set_no": 999,
        "meta_rev_at_epoch": 98690,
        "meta_bstar": 0.00031908392,
        "meta_mean_motion_dot": 1.014e-05,
        "meta_mean_motion_ddot": 0,
        "tle_line1": "1 30037U 99025NN  25339.92120191  .00001014  00000+0  31908-3 0  9994",
        "tle_line2": "2 30037  98.3827 315.8424 0174628  75.2734 316.1782 14.34103236986902"
      },
      "geometry": {
        "type": "Point",
        "coordinates": [
          -47.040314241531625,
          22.042481549701133
        ]
      }
    },
    {
      "type": "Feature",
      "properties": {
        "norad_id": 30038,
        "name": "FENGYUN 1C DEB",
        "group": "fengyun-1c-debris",
        "lat": -60.342222570014656,
        "lon": -16.769230634936545,
        "alt_km": 951.9105871467391,
        "timestamp": "2025-12-06T11:28:11.335933+00:00",
        "meta_object_name": "FENGYUN 1C DEB",
        "meta_object_id": "1999-025NP",
        "meta_epoch": "2025-12-05T22:40:14.908800",
        "meta_mean_motion": 14.39273338,
        "meta_eccentricity": 0.02578758,
        "meta_inclination": 98.3679,
        "meta_ra_of_asc_node": 327.7289,
        "meta_arg_of_pericenter": 123.1425,
        "meta_mean_anomaly": 293.7307,
        "meta_ephemeris_type": 0,
        "meta_classification_type": "U",
        "meta_norad_cat_id": 30038,
        "meta_element_set_no": 999,
        "meta_rev_at_epoch": 98793,
        "meta_bstar": 0.00032526982,
        "meta_mean_motion_dot": 1.441e-05,
        "meta_mean_motion_ddot": 0,
        "tle_line1": "1 30038U 99025NP  25339.94461700  .00001441  00000+0  32527-3 0  9993",
        "tle_line2": "2 30038  98.3679 327.7289 0257875 123.1425 293.7307 14.39273338987938"
      },
      "geometry": {
        "type": "Point",
        "coordinates": [
          -16.769230634936545,
          -60.342222570014656
        ]
      }
    }
  ]
}